{"type":"Feature","properties":{"MUN":"LOWER TWP","COUNTY":"CAPE MAY","MUN_LABEL":"Lower Township","MUN_TYPE":"Township","NAME":"Lower Township","GNIS_NAME":"Township of Lower","partNames":["Lower Township E","Lower Township W"]},"geometry":{"type":"MultiPolygon","coordinates":[[[[-74.9333031,38.9481589],[-74.9223653,38.9669245],[-74.9294358,38.9805378],[-74.8887922,39.0145827],[-74.876776,39.0075036],[-74.8719756,39.0046737],[-74.8710555,39.0043591],[-74.8335663,38.9915328],[-74.8336836,38.9913074],[-74.8350607,38.9896764],[-74.8310474,38.9881874],[-74.8307936,38.9879445],[-74.8333139,38.9860786],[-74.8333837,38.9889091],[-74.8340199,38.9891643],[-74.8347927,38.9867151],[-74.8354974,38.9872935],[-74.8359863,38.9866969],[-74.8382329,38.9838137],[-74.838129,38.9826794],[-74.8364382,38.9804251],[-74.8380211,38.9796851],[-74.8381969,38.9796189],[-74.8388092,38.9786724],[-74.8391954,38.9780066],[-74.8395401,38.9776323],[-74.8415106,38.9753535],[-74.841353,38.9751784],[-74.8415556,38.9745004],[-74.8419917,38.9741103],[-74.8447008,38.9714766],[-74.8452091,38.9705667],[-74.8460373,38.9695584],[-74.84785,38.9693218],[-74.8483273,38.9692265],[-74.8486205,38.9691531],[-74.8490163,38.9690198],[-74.8493372,38.9688924],[-74.8496009,38.9687655],[-74.8499986,38.9685184],[-74.8553372,38.9646219],[-74.8462536,38.9570624],[-74.8467512,38.9566324],[-74.8476035,38.9559191],[-74.8489498,38.9549193],[-74.8495589,38.954414],[-74.8502195,38.9537679],[-74.8510459,38.9530991],[-74.8515133,38.9526979],[-74.8519402,38.9522709],[-74.8524691,38.9518436],[-74.8527052,38.9516577],[-74.8528656,38.9515092],[-74.8531065,38.9513345],[-74.8533827,38.9510893],[-74.8536565,38.9508553],[-74.8538736,38.9506621],[-74.8540296,38.9505728],[-74.8541384,38.950528],[-74.8542186,38.9504538],[-74.8544828,38.9501938],[-74.8549478,38.9497926],[-74.855203,38.9496289],[-74.8556801,38.949298],[-74.8560057,38.9489861],[-74.8561001,38.9489006],[-74.8561568,38.9488671],[-74.8562087,38.9488189],[-74.8562368,38.9487558],[-74.8562698,38.948715],[-74.8563407,38.9486667],[-74.8564497,38.9486552],[-74.8565112,38.9486514],[-74.8565633,38.9486253],[-74.8565961,38.9485548],[-74.8566383,38.9484659],[-74.8570368,38.9480537],[-74.8573764,38.9477047],[-74.8575322,38.9475821],[-74.857702,38.9473928],[-74.8579333,38.9471996],[-74.8582542,38.9469209],[-74.8584123,38.9467724],[-74.858549,38.9466276],[-74.8586622,38.9465162],[-74.8587802,38.9464122],[-74.8588605,38.9463416],[-74.8589218,38.9462859],[-74.8589452,38.946234],[-74.8589688,38.9462006],[-74.8590492,38.9461596],[-74.8591532,38.9461112],[-74.8592287,38.946048],[-74.8592757,38.9459516],[-74.8592991,38.945896],[-74.8594124,38.9457994],[-74.8595821,38.9456175],[-74.8597426,38.9454874],[-74.8598864,38.9453167],[-74.8599523,38.9452314],[-74.8600752,38.9451606],[-74.860297,38.9449675],[-74.8604052,38.9448005],[-74.8604901,38.9447188],[-74.8606177,38.944637],[-74.8608343,38.9443624],[-74.861539,38.9435754],[-74.8620434,38.9430186],[-74.8624607,38.9425841],[-74.8629935,38.9420124],[-74.8634835,38.9414297],[-74.8637518,38.9410735],[-74.8641947,38.9405427],[-74.8645363,38.9400909],[-74.863732,38.9391122],[-74.8629028,38.9381264],[-74.8619483,38.9369581],[-74.86173,38.9367017],[-74.8617127,38.9366618],[-74.861715,38.9366218],[-74.8617368,38.936595],[-74.8617806,38.9365854],[-74.8635401,38.9364341],[-74.863541,38.9364353],[-74.8697552,38.9443891],[-74.8715189,38.9466461],[-74.8738613,38.9498538],[-74.8750016,38.9510457],[-74.8758731,38.9517014],[-74.8762327,38.9518802],[-74.876502,38.9519372],[-74.8765578,38.9519543],[-74.8766138,38.9519708],[-74.8766698,38.9519867],[-74.876726,38.952002],[-74.8767823,38.9520168],[-74.8768388,38.9520309],[-74.8768953,38.9520444],[-74.876952,38.9520574],[-74.8770088,38.9520697],[-74.8770658,38.9520815],[-74.8771228,38.9520926],[-74.87718,38.9521032],[-74.8772373,38.9521132],[-74.8772948,38.9521225],[-74.8773523,38.9521313],[-74.87741,38.9521395],[-74.8774809,38.9521487],[-74.877552,38.952157],[-74.8776232,38.9521644],[-74.8776947,38.9521709],[-74.8777663,38.9521765],[-74.8778382,38.9521812],[-74.8779102,38.9521851],[-74.8779824,38.952188],[-74.8780548,38.95219],[-74.8781273,38.9521912],[-74.8782001,38.9521914],[-74.878273,38.9521908],[-74.8783462,38.9521892],[-74.8784195,38.9521868],[-74.878493,38.9521834],[-74.8785667,38.9521792],[-74.8786912,38.9521726],[-74.8788154,38.9521653],[-74.8789393,38.9521573],[-74.8790629,38.9521487],[-74.8791868,38.9521393],[-74.8793104,38.9521292],[-74.8794337,38.9521184],[-74.8795568,38.9521069],[-74.87968,38.9520947],[-74.879803,38.9520819],[-74.8799258,38.9520683],[-74.8800484,38.952054],[-74.8801709,38.952039],[-74.8802933,38.9520234],[-74.8804155,38.952007],[-74.8805376,38.9519899],[-74.8806885,38.9519677],[-74.8808434,38.9519438],[-74.8810028,38.951918],[-74.8811676,38.9518902],[-74.8812603,38.9518738],[-74.8813625,38.9518549],[-74.8814695,38.9518344],[-74.8817697,38.9517758],[-74.8818626,38.9517583],[-74.8819461,38.951743],[-74.8820801,38.9517194],[-74.8822258,38.9516943],[-74.882387,38.9516672],[-74.8825931,38.9516329],[-74.8827498,38.9516074],[-74.8829136,38.9515815],[-74.8830863,38.9515549],[-74.8832709,38.9515272],[-74.8836196,38.9514764],[-74.8842524,38.9513861],[-74.8844986,38.9513507],[-74.8847486,38.9513139],[-74.8849734,38.9512799],[-74.8855016,38.9511979],[-74.886241,38.9510814],[-74.8868498,38.9509848],[-74.8874935,38.9508817],[-74.8881827,38.9507704],[-74.8889452,38.9506465],[-74.8895896,38.9505411],[-74.8902741,38.9504283],[-74.8910117,38.9503061],[-74.8918412,38.9501679],[-74.8924772,38.9500615],[-74.8931335,38.949951],[-74.8938137,38.949836],[-74.8945233,38.9497154],[-74.8952604,38.9495896],[-74.8960455,38.9494551],[-74.8978618,38.9491426],[-74.8992426,38.9489045],[-74.8996891,38.9488269],[-74.9000908,38.9487564],[-74.9002658,38.9487253],[-74.9004593,38.9486903],[-74.901196,38.9485553],[-74.9015069,38.948499],[-74.9016757,38.9484691],[-74.9018335,38.9484416],[-74.9019834,38.948416],[-74.902127,38.9483921],[-74.9022499,38.9483724],[-74.9023866,38.9483516],[-74.9025222,38.9483318],[-74.9028753,38.9482809],[-74.9030717,38.9482514],[-74.9031763,38.9482349],[-74.9032739,38.9482187],[-74.9033664,38.9482026],[-74.9034547,38.9481864],[-74.9035199,38.9481735],[-74.9035919,38.9481579],[-74.9036641,38.9481414],[-74.9038563,38.9480964],[-74.903914,38.9480834],[-74.9039659,38.9480723],[-74.9040253,38.9480605],[-74.9040811,38.9480505],[-74.9041343,38.948042],[-74.9041856,38.948035],[-74.9042547,38.9480262],[-74.9042766,38.9480239],[-74.9042963,38.9480224],[-74.9043177,38.9480214],[-74.9043417,38.9480209],[-74.9044221,38.9480213],[-74.9044737,38.9480216],[-74.9045275,38.9480225],[-74.9045839,38.948024],[-74.9046438,38.9480261],[-74.9047695,38.9480318],[-74.9049743,38.9480429],[-74.9050752,38.9480486],[-74.9051761,38.9480549],[-74.9052769,38.9480618],[-74.9053776,38.9480691],[-74.9057885,38.9481054],[-74.906197,38.9482502],[-74.9063426,38.9483676],[-74.9065974,38.9485742],[-74.9067978,38.9487716],[-74.9069556,38.9488984],[-74.907113,38.9489733],[-74.9072885,38.9490339],[-74.9074577,38.9490522],[-74.9075845,38.9490424],[-74.9077534,38.9489993],[-74.9079341,38.9489232],[-74.9081327,38.9487999],[-74.9083823,38.9486199],[-74.9089119,38.9483067],[-74.9092492,38.9481547],[-74.9097676,38.9479736],[-74.910063,38.9478971],[-74.9102561,38.9478635],[-74.9105279,38.9478766],[-74.9107575,38.9478947],[-74.9109691,38.9479317],[-74.9111567,38.9479971],[-74.9114233,38.9481423],[-74.9116112,38.948269],[-74.9118361,38.9485134],[-74.9119578,38.9486828],[-74.9120373,38.9488428],[-74.9120904,38.9490275],[-74.9121283,38.9490748],[-74.9121676,38.9491209],[-74.9122083,38.9491658],[-74.9122504,38.9492095],[-74.912294,38.949252],[-74.9123389,38.9492934],[-74.9123852,38.9493335],[-74.912433,38.9493725],[-74.9124679,38.9493993],[-74.9125045,38.9494258],[-74.9125428,38.949452],[-74.9125828,38.949478],[-74.9126245,38.9495036],[-74.9126681,38.9495291],[-74.9127136,38.9495545],[-74.9127611,38.9495797],[-74.9128101,38.9496045],[-74.9128613,38.9496294],[-74.9129149,38.9496545],[-74.9129712,38.9496798],[-74.9130302,38.9497053],[-74.9130929,38.9497316],[-74.9131602,38.949759],[-74.9132342,38.9497883],[-74.9133456,38.9498337],[-74.9133716,38.9498438],[-74.9133951,38.9498525],[-74.9134215,38.9498615],[-74.9134465,38.9498692],[-74.9134705,38.9498757],[-74.9134938,38.949881],[-74.9135218,38.9498861],[-74.9135534,38.9498907],[-74.9135861,38.9498945],[-74.9136515,38.9499013],[-74.9137348,38.9499107],[-74.9137779,38.9499148],[-74.9138194,38.9499174],[-74.9138385,38.9499179],[-74.9138568,38.949918],[-74.913896,38.9499172],[-74.9139312,38.9499157],[-74.9139638,38.9499134],[-74.9139942,38.9499103],[-74.9140229,38.9499063],[-74.91405,38.9499014],[-74.9140755,38.9498956],[-74.9140995,38.9498888],[-74.9141377,38.9498765],[-74.914152,38.9498715],[-74.9141646,38.9498665],[-74.9141764,38.9498613],[-74.9141871,38.949856],[-74.9141967,38.9498505],[-74.9142054,38.9498449],[-74.9142241,38.9498307],[-74.9142413,38.9498156],[-74.914256,38.9498006],[-74.9142678,38.949786],[-74.9142725,38.949779],[-74.9142764,38.9497723],[-74.9142795,38.9497658],[-74.9142817,38.9497595],[-74.9142832,38.9497534],[-74.9142839,38.9497476],[-74.9142838,38.9497421],[-74.9142829,38.9497368],[-74.914281,38.9497313],[-74.9142779,38.9497254],[-74.9142739,38.9497192],[-74.9142686,38.9497125],[-74.9142555,38.9496986],[-74.9142323,38.9496771],[-74.9142201,38.9496669],[-74.9142066,38.9496578],[-74.9141918,38.9496499],[-74.9141757,38.9496431],[-74.9141583,38.9496374],[-74.9141394,38.9496328],[-74.9141189,38.9496293],[-74.9140967,38.9496267],[-74.9140777,38.9496254],[-74.9140573,38.9496247],[-74.9140352,38.9496246],[-74.9140112,38.9496252],[-74.9139654,38.9496274],[-74.9138489,38.9496352],[-74.9138165,38.9496366],[-74.9137878,38.9496371],[-74.9137575,38.9496366],[-74.9137299,38.949635],[-74.9137044,38.9496322],[-74.9136807,38.9496282],[-74.9136337,38.9496185],[-74.9135936,38.9496097],[-74.9135571,38.9496011],[-74.9135233,38.9495925],[-74.9134912,38.9495836],[-74.913461,38.9495745],[-74.9134324,38.949565],[-74.9134054,38.9495552],[-74.9133523,38.9495343],[-74.9133054,38.9495143],[-74.9132631,38.9494945],[-74.9132434,38.9494845],[-74.9132246,38.9494745],[-74.9132067,38.9494643],[-74.9131895,38.9494541],[-74.9131733,38.9494437],[-74.9131579,38.9494332],[-74.9131433,38.9494226],[-74.9131295,38.9494119],[-74.9131165,38.949401],[-74.9131043,38.94939],[-74.9130802,38.9493668],[-74.9130615,38.9493479],[-74.9130455,38.9493303],[-74.9130319,38.9493137],[-74.9130201,38.9492975],[-74.9130105,38.9492818],[-74.9130029,38.9492665],[-74.9129972,38.9492515],[-74.9129933,38.9492373],[-74.9129902,38.9492227],[-74.9129881,38.949208],[-74.912987,38.9491935],[-74.9129868,38.9491793],[-74.9129877,38.9491655],[-74.9129896,38.9491523],[-74.9129924,38.9491398],[-74.9129964,38.9491275],[-74.9130017,38.9491149],[-74.9130084,38.949102],[-74.9130165,38.9490887],[-74.9130258,38.9490752],[-74.9130365,38.9490614],[-74.9130484,38.9490475],[-74.9130615,38.9490335],[-74.9130749,38.9490209],[-74.9130904,38.9490087],[-74.9131082,38.9489968],[-74.9131285,38.9489848],[-74.9131474,38.9489749],[-74.9131692,38.9489643],[-74.9132431,38.948931],[-74.9132695,38.9489185],[-74.9132944,38.9489074],[-74.9133234,38.9488964],[-74.9133538,38.9488862],[-74.9134363,38.9488603],[-74.9134603,38.9488519],[-74.9134812,38.9488438],[-74.913504,38.9488335],[-74.913524,38.9488227],[-74.9135331,38.9488171],[-74.9135416,38.9488113],[-74.9135496,38.9488053],[-74.913557,38.9487991],[-74.9135673,38.9487896],[-74.9135773,38.9487798],[-74.9135868,38.9487696],[-74.913596,38.9487591],[-74.9136048,38.9487483],[-74.9136132,38.9487372],[-74.9136288,38.9487139],[-74.9136193,38.9486055],[-74.9136185,38.9484779],[-74.9136089,38.948347],[-74.9135816,38.9481954],[-74.9135811,38.9481058],[-74.9135895,38.9480334],[-74.9136201,38.9479816],[-74.9136728,38.9479401],[-74.913708,38.9479262],[-74.9137919,38.9479293],[-74.9138361,38.9479446],[-74.913898,38.9479634],[-74.9139932,38.948001],[-74.9140795,38.9480524],[-74.9142756,38.9481775],[-74.9143532,38.948241],[-74.9144419,38.9483251],[-74.9145196,38.9483937],[-74.9145817,38.9484556],[-74.9146726,38.9485242],[-74.914779,38.9485928],[-74.9148564,38.9486304],[-74.9149338,38.9486525],[-74.9150199,38.9486574],[-74.9151158,38.9486415],[-74.915151,38.9486242],[-74.9151883,38.9485861],[-74.9152101,38.9485343],[-74.9152251,38.9484585],[-74.9152247,38.9483895],[-74.9152107,38.9482689],[-74.9151903,38.9481841],[-74.9151768,38.9481277],[-74.9151606,38.948002],[-74.9151474,38.9478142],[-74.9151579,38.9477245],[-74.9151904,38.9476262],[-74.9152627,38.9475242],[-74.9153527,38.9474378],[-74.9154864,38.9473399],[-74.9155208,38.9473148],[-74.9156681,38.9472195],[-74.915719,38.9471775],[-74.9157669,38.9471381],[-74.9158701,38.9470499],[-74.9159225,38.9470006],[-74.9160007,38.9469271],[-74.9160702,38.9468531],[-74.9160885,38.9468337],[-74.9161608,38.9467507],[-74.9162243,38.9466626],[-74.9162789,38.9465676],[-74.9163247,38.9464675],[-74.9163604,38.946345],[-74.9163687,38.9462657],[-74.9163705,38.9462002],[-74.9163724,38.9461364],[-74.9163703,38.9461023],[-74.9163675,38.9460571],[-74.9163538,38.9459728],[-74.9163201,38.9458677],[-74.9162998,38.9458092],[-74.9162756,38.9457599],[-74.9162686,38.9457456],[-74.9162285,38.9456957],[-74.9161841,38.9456356],[-74.9161433,38.9455595],[-74.9161417,38.9455565],[-74.9161226,38.9455014],[-74.9161201,38.9454497],[-74.9161242,38.9453945],[-74.9161393,38.9453376],[-74.9161506,38.9453134],[-74.9161741,38.9452634],[-74.9162419,38.9451545],[-74.9162617,38.9451247],[-74.9163655,38.944968],[-74.916501,38.9447417],[-74.9165838,38.9446139],[-74.9165973,38.9445932],[-74.9166694,38.9444792],[-74.9166854,38.9444532],[-74.9167088,38.9444153],[-74.9167636,38.9443617],[-74.9168024,38.9443311],[-74.9168273,38.9443114],[-74.9169054,38.9442646],[-74.9169327,38.94425],[-74.9169538,38.9442386],[-74.9170066,38.9442143],[-74.9170639,38.9441934],[-74.9171299,38.9441708],[-74.9172225,38.9441515],[-74.9172432,38.9441465],[-74.9173173,38.9441287],[-74.9173437,38.94412],[-74.9173723,38.9441096],[-74.9174274,38.9440853],[-74.9174846,38.9440592],[-74.9175418,38.9440228],[-74.9175857,38.943983],[-74.9176008,38.9439639],[-74.9176185,38.9439416],[-74.9176624,38.9438897],[-74.9177532,38.943767],[-74.9178014,38.9437013],[-74.9178715,38.9436184],[-74.9179593,38.9435371],[-74.9180626,38.9434677],[-74.9180699,38.9434618],[-74.9181219,38.9434193],[-74.9181878,38.9433742],[-74.918278,38.9433205],[-74.9183474,38.9432944],[-74.918434,38.9432724],[-74.9184642,38.9432647],[-74.9185171,38.943249],[-74.9185876,38.9432349],[-74.9186515,38.9432244],[-74.9187265,38.9432172],[-74.918839,38.9432133],[-74.918931,38.9431946],[-74.9189426,38.9431923],[-74.9190065,38.9431748],[-74.9190792,38.9431435],[-74.9191319,38.9431055],[-74.9192201,38.94313],[-74.919264,38.9431383],[-74.9193044,38.9431458],[-74.9193385,38.9431569],[-74.9193736,38.9431729],[-74.9193879,38.9431861],[-74.9193997,38.9432008],[-74.9194057,38.9432259],[-74.9194166,38.9432595],[-74.9194293,38.9432818],[-74.919442,38.9433056],[-74.9194538,38.94333],[-74.9194673,38.9433517],[-74.9194818,38.9433684],[-74.9195061,38.9433921],[-74.9195902,38.9434436],[-74.9196198,38.9434519],[-74.9196476,38.9434511],[-74.91967,38.9434489],[-74.9196914,38.9434446],[-74.9197201,38.9434361],[-74.919754,38.9434241],[-74.91978,38.9434156],[-74.9198189,38.943405],[-74.9198341,38.9433951],[-74.9198573,38.9433797],[-74.9198598,38.9433781],[-74.919876,38.9433677],[-74.9198966,38.9433564],[-74.9199135,38.9433487],[-74.9199368,38.9433388],[-74.919952,38.9433338],[-74.9199869,38.9433281],[-74.9200129,38.9433259],[-74.9200317,38.94333],[-74.9200434,38.9433377],[-74.9200524,38.9433489],[-74.9200615,38.94336],[-74.9200642,38.9433691],[-74.920066,38.9433789],[-74.9200661,38.9433908],[-74.9200653,38.9434027],[-74.9200618,38.9434125],[-74.9200555,38.9434195],[-74.9200466,38.9434252],[-74.9200359,38.9434308],[-74.9200234,38.9434343],[-74.9200082,38.9434372],[-74.9199911,38.9434394],[-74.9199804,38.9434401],[-74.9199723,38.9434422],[-74.9199562,38.9434486],[-74.9199473,38.9434542],[-74.9199445,38.943457],[-74.9199402,38.9434612],[-74.9199385,38.9434724],[-74.9199367,38.9434857],[-74.9199368,38.9434962],[-74.9199413,38.943506],[-74.9199477,38.9435172],[-74.9199585,38.9435311],[-74.9199707,38.9435388],[-74.9199841,38.9435429],[-74.9200074,38.9435499],[-74.9200263,38.943554],[-74.9200622,38.9435679],[-74.9200946,38.9435838],[-74.9201288,38.9436068],[-74.9201486,38.9436249],[-74.9202309,38.943689],[-74.9202525,38.9437036],[-74.9202705,38.9437106],[-74.9202884,38.943714],[-74.9203135,38.9437146],[-74.9203395,38.9437152],[-74.9203628,38.9437151],[-74.9203978,38.9437213],[-74.9204176,38.9437275],[-74.9204427,38.94374],[-74.9204616,38.9437519],[-74.9204733,38.9437637],[-74.920476,38.9437721],[-74.920477,38.943784],[-74.9204735,38.9437973],[-74.92047,38.9438043],[-74.9204674,38.9438141],[-74.920463,38.9438351],[-74.9204604,38.9438519],[-74.9204618,38.9438659],[-74.9204682,38.9438869],[-74.92048,38.9439078],[-74.9205034,38.9439308],[-74.9205295,38.9439426],[-74.9205591,38.9439544],[-74.9206381,38.9439758],[-74.9207314,38.9439944],[-74.9207947,38.944018],[-74.9208531,38.9440373],[-74.9209123,38.9440595],[-74.9209545,38.9440692],[-74.9209841,38.9440768],[-74.9210209,38.9440836],[-74.9210451,38.9440933],[-74.9210694,38.9441072],[-74.9210866,38.9441233],[-74.9210961,38.9441512],[-74.9211008,38.9441813],[-74.9211009,38.9442051],[-74.9210957,38.9442331],[-74.9210941,38.9442562],[-74.9210888,38.9442842],[-74.9210872,38.9443066],[-74.9210837,38.9443311],[-74.9210861,38.9443514],[-74.9210907,38.9443709],[-74.9210953,38.9443905],[-74.9211008,38.9444108],[-74.9211072,38.9444269],[-74.9211225,38.9444506],[-74.921137,38.9444667],[-74.921163,38.9444819],[-74.9211918,38.9444972],[-74.9212277,38.9445076],[-74.921252,38.9445208],[-74.9212682,38.9445383],[-74.92128,38.9445557],[-74.9212836,38.9445669],[-74.9212882,38.9445795],[-74.9212932,38.9445927],[-74.9213013,38.9446074],[-74.921314,38.9446291],[-74.9213257,38.9446437],[-74.9213375,38.9446577],[-74.9213492,38.944673],[-74.9213645,38.944687],[-74.9213807,38.9447002],[-74.9213983,38.9447134],[-74.9214253,38.9447308],[-74.9214612,38.9447454],[-74.9214881,38.9447544],[-74.9215097,38.9447634],[-74.9215456,38.9447801],[-74.9215573,38.9447884],[-74.9215737,38.9448167],[-74.9215792,38.9448297],[-74.9215844,38.9448534],[-74.9215888,38.9448754],[-74.9215946,38.944901],[-74.9216023,38.9449129],[-74.9216116,38.9449239],[-74.9216559,38.9449493],[-74.921725,38.9449782],[-74.9217873,38.9449974],[-74.9218597,38.9450137],[-74.9219337,38.9450209],[-74.9219942,38.9450213],[-74.9220053,38.9450214],[-74.922064,38.9450235],[-74.9221178,38.9450396],[-74.9221547,38.9450589],[-74.9221707,38.9450798],[-74.9221838,38.9451054],[-74.9222019,38.9451356],[-74.9222214,38.9451557],[-74.9222553,38.9451688],[-74.9222883,38.9451737],[-74.9222911,38.9451741],[-74.9223179,38.945174],[-74.9223557,38.9451677],[-74.9223924,38.9451528],[-74.922432,38.9451262],[-74.9224618,38.9451145],[-74.9224876,38.9451144],[-74.9224986,38.9451221],[-74.9225014,38.9451311],[-74.9225037,38.9451384],[-74.9225008,38.9451609],[-74.922497,38.9451827],[-74.9225001,38.945206],[-74.9225091,38.9452246],[-74.9225262,38.9452416],[-74.9226405,38.9453173],[-74.9226585,38.945339],[-74.9226625,38.9453506],[-74.9226636,38.9453723],[-74.9226578,38.9453894],[-74.9226361,38.9454229],[-74.9226322,38.9454385],[-74.9226368,38.9454586],[-74.9226509,38.9454803],[-74.9226688,38.9454888],[-74.9226877,38.9454903],[-74.9227126,38.9454863],[-74.9227444,38.9454862],[-74.9227723,38.945497],[-74.9227833,38.945514],[-74.9227834,38.9455295],[-74.9227795,38.9455381],[-74.9227666,38.9455389],[-74.9227586,38.9455389],[-74.9227436,38.9455343],[-74.9227357,38.9455336],[-74.9227178,38.9455336],[-74.92269,38.945547],[-74.9226812,38.945561],[-74.9226803,38.9455726],[-74.9226833,38.9455873],[-74.9226923,38.9455989],[-74.9227093,38.9456082],[-74.9227302,38.945612],[-74.9227591,38.9456127],[-74.9228043,38.9456164],[-74.9228412,38.9456272],[-74.9228611,38.9456387],[-74.9228821,38.9456542],[-74.9229011,38.9456696],[-74.922919,38.9456843],[-74.922941,38.9456951],[-74.92295,38.9456998],[-74.9229898,38.9457128],[-74.9230312,38.9457258],[-74.9230521,38.945739],[-74.9230701,38.9457552],[-74.9230922,38.9457792],[-74.9231091,38.9457916],[-74.923126,38.9457938],[-74.923136,38.945793],[-74.9231469,38.9457868],[-74.9231577,38.9457759],[-74.9231755,38.9457533],[-74.9231983,38.94574],[-74.92324,38.9457235],[-74.9232687,38.9457141],[-74.9232896,38.9457032],[-74.9233014,38.9456876],[-74.9233053,38.9456674],[-74.9233036,38.9456472],[-74.9232896,38.9456279],[-74.9232746,38.9456085],[-74.9232715,38.9455969],[-74.9232744,38.9455798],[-74.9232853,38.945572],[-74.9233062,38.9455696],[-74.9233281,38.9455788],[-74.9233361,38.9455865],[-74.9233521,38.9455974],[-74.923371,38.9455996],[-74.9233968,38.9455972],[-74.9234216,38.9455862],[-74.9234494,38.945583],[-74.9234634,38.9455853],[-74.9234694,38.9455954],[-74.9234695,38.9456117],[-74.9234626,38.9456218],[-74.9234557,38.9456304],[-74.9234537,38.9456412],[-74.9234538,38.9456506],[-74.9234568,38.9456568],[-74.9234718,38.9456691],[-74.9234907,38.9456753],[-74.9235226,38.9456783],[-74.9235728,38.9456835],[-74.9236495,38.9456988],[-74.9236695,38.9457096],[-74.9236785,38.945722],[-74.9236815,38.945739],[-74.9236756,38.945746],[-74.9236618,38.9457562],[-74.9236558,38.9457632],[-74.9236549,38.9457756],[-74.923662,38.945788],[-74.9236739,38.9457934],[-74.9236849,38.9457934],[-74.9237077,38.9457933],[-74.9237639,38.9457962],[-74.9237908,38.9458031],[-74.9238078,38.9458155],[-74.9238138,38.9458255],[-74.9238169,38.9458418],[-74.9238199,38.9458511],[-74.9238339,38.9458635],[-74.9238489,38.9458766],[-74.923859,38.9458952],[-74.923862,38.9459061],[-74.9238581,38.9459209],[-74.9238401,38.9459392],[-74.9238154,38.9459703],[-74.9237978,38.9460146],[-74.923796,38.9460426],[-74.9237963,38.9460892],[-74.9238053,38.9461109],[-74.9238353,38.9461365],[-74.9238659,38.9461614],[-74.9238971,38.9461856],[-74.9239289,38.9462091],[-74.9239613,38.946232],[-74.9239944,38.9462541],[-74.9240281,38.9462756],[-74.9240624,38.9462964],[-74.9240879,38.9463107],[-74.9241152,38.9463246],[-74.9241446,38.9463383],[-74.9241766,38.9463519],[-74.9242097,38.946365],[-74.9242469,38.9463788],[-74.9242859,38.9463926],[-74.9243947,38.9464302],[-74.9244277,38.9464421],[-74.924457,38.9464531],[-74.9244902,38.9464665],[-74.9245205,38.9464797],[-74.9245486,38.9464929],[-74.9245748,38.9465065],[-74.9246313,38.946538],[-74.9246867,38.9465709],[-74.9247408,38.9466051],[-74.9247938,38.9466406],[-74.9248457,38.9466775],[-74.9248963,38.9467156],[-74.9249458,38.9467552],[-74.9249941,38.946796],[-74.9251096,38.9464627],[-74.9251323,38.9463972],[-74.9254561,38.9453205],[-74.9258463,38.9438272],[-74.9269789,38.9443962],[-74.9279299,38.9454273],[-74.9287099,38.9458943],[-74.9287292,38.9459054],[-74.9287499,38.9459168],[-74.9287709,38.945928],[-74.9287922,38.9459389],[-74.9288137,38.9459495],[-74.9288354,38.9459598],[-74.9288573,38.9459698],[-74.9288795,38.9459795],[-74.9289019,38.9459889],[-74.9289245,38.945998],[-74.9289472,38.9460068],[-74.9289702,38.9460153],[-74.9289934,38.9460234],[-74.9290168,38.9460313],[-74.9290403,38.9460388],[-74.9290639,38.946046],[-74.9290878,38.9460529],[-74.9291118,38.9460595],[-74.9291359,38.9460657],[-74.9291602,38.9460716],[-74.9291846,38.9460771],[-74.9292091,38.9460824],[-74.9292358,38.9460877],[-74.9299376,38.9462604],[-74.9299444,38.9462622],[-74.9299882,38.9462745],[-74.930032,38.9462874],[-74.9300755,38.9463009],[-74.9301187,38.946315],[-74.9301615,38.9463297],[-74.930204,38.946345],[-74.9302463,38.9463609],[-74.930288,38.9463773],[-74.9303295,38.9463943],[-74.9303705,38.9464119],[-74.9304112,38.94643],[-74.9304514,38.9464487],[-74.9304913,38.9464679],[-74.9305307,38.9464877],[-74.9305696,38.9465079],[-74.9306081,38.9465288],[-74.9306461,38.9465501],[-74.9306837,38.946572],[-74.9307206,38.9465943],[-74.9307571,38.9466172],[-74.9307921,38.9466398],[-74.9326027,38.9477352],[-74.9333031,38.9481589]]],[[[-74.9380127,38.9489295],[-74.9390493,38.951605],[-74.944105,38.9592208],[-74.9585429,38.9604685],[-74.9644988,38.9580151],[-74.9644812,38.9580534],[-74.9644454,38.9581888],[-74.9644088,38.9582828],[-74.9641152,38.9588718],[-74.964081,38.9589498],[-74.964056,38.9590176],[-74.9640111,38.9592349],[-74.9640027,38.9592842],[-74.9639995,38.9593041],[-74.9639928,38.9593193],[-74.9639315,38.9594086],[-74.9638885,38.9595012],[-74.9638606,38.959558],[-74.9637607,38.9597064],[-74.9637145,38.9598092],[-74.9636845,38.9598976],[-74.9635925,38.9602854],[-74.9635206,38.960541],[-74.963366,38.9610395],[-74.9632487,38.9613359],[-74.9632332,38.9613892],[-74.9632324,38.961429],[-74.9632384,38.9614743],[-74.9632411,38.9615005],[-74.9632379,38.9615248],[-74.9632192,38.961585],[-74.9632103,38.9616216],[-74.9632055,38.9616645],[-74.9632053,38.9617429],[-74.9632031,38.9617672],[-74.9631902,38.9618269],[-74.9630864,38.9623029],[-74.9630711,38.9624517],[-74.9630292,38.9629686],[-74.9630039,38.9631808],[-74.9629941,38.9633915],[-74.9629839,38.9634623],[-74.962978,38.9635005],[-74.9629482,38.9636112],[-74.9629405,38.9636923],[-74.9629421,38.9637719],[-74.9629497,38.9638506],[-74.9629755,38.9639786],[-74.9630601,38.964368],[-74.9631171,38.9645913],[-74.9631846,38.9649458],[-74.963214,38.9650785],[-74.9632835,38.9652715],[-74.9633299,38.9654391],[-74.9633558,38.9655082],[-74.9633721,38.9655448],[-74.9633822,38.9655638],[-74.9634146,38.9656202],[-74.9634429,38.9656801],[-74.9635349,38.9658934],[-74.9645423,38.9676721],[-74.9645363,38.9677498],[-74.9645098,38.9678208],[-74.9644733,38.9678666],[-74.9644331,38.9679148],[-74.9641977,38.9682095],[-74.9640941,38.968372],[-74.9639247,38.9686377],[-74.963646,38.9691757],[-74.963577,38.9693701],[-74.9635116,38.9696314],[-74.9634653,38.9698162],[-74.963344,38.9702877],[-74.9633372,38.9703128],[-74.9632733,38.9705479],[-74.9631356,38.9708317],[-74.9631346,38.9708338],[-74.9630408,38.9712157],[-74.9629781,38.9715434],[-74.9629518,38.9716566],[-74.9628784,38.971846],[-74.9628334,38.9719086],[-74.962733,38.9720914],[-74.962667,38.9722621],[-74.9626058,38.972649],[-74.962599,38.9727672],[-74.962579,38.972855],[-74.9625321,38.972965],[-74.9625131,38.9730309],[-74.9625026,38.9730849],[-74.9624879,38.9731424],[-74.9624593,38.9732353],[-74.9622294,38.9738035],[-74.9621435,38.9740587],[-74.9621214,38.9741534],[-74.9620358,38.9744609],[-74.9619528,38.9746706],[-74.9616496,38.9757792],[-74.9616068,38.9760006],[-74.9615639,38.9760666],[-74.9615492,38.976124],[-74.9615067,38.9764146],[-74.9614882,38.9764771],[-74.9614744,38.9765092],[-74.9614648,38.9765413],[-74.9614629,38.9765844],[-74.9614883,38.9766527],[-74.9614965,38.9766796],[-74.9615681,38.9769537],[-74.9615966,38.9770152],[-74.9616205,38.9770404],[-74.9616466,38.9770614],[-74.9616597,38.9770757],[-74.961662,38.977101],[-74.9616546,38.9771306],[-74.9616338,38.9771695],[-74.9613925,38.9775571],[-74.961287,38.9778048],[-74.9611504,38.9781691],[-74.961032,38.9784996],[-74.9609852,38.9787108],[-74.9609744,38.9788508],[-74.9609749,38.9789283],[-74.9609832,38.9789801],[-74.9609845,38.979013],[-74.9609735,38.9791456],[-74.9609722,38.9793608],[-74.9609816,38.9794781],[-74.9609906,38.9795075],[-74.9610119,38.9795462],[-74.9610374,38.9795767],[-74.9610599,38.9795915],[-74.9611176,38.9796034],[-74.9611414,38.9796083],[-74.9611643,38.9796246],[-74.9611778,38.9796514],[-74.9611809,38.9796767],[-74.9611781,38.9796969],[-74.9611673,38.979729],[-74.9611183,38.9798298],[-74.9608523,38.9803505],[-74.9605648,38.9810778],[-74.9605049,38.9812644],[-74.9604649,38.9814278],[-74.9604287,38.981674],[-74.9604273,38.9817113],[-74.9604472,38.9817932],[-74.9604497,38.9818103],[-74.9604505,38.9818267],[-74.9604393,38.9819393],[-74.9604423,38.9819669],[-74.960453,38.9819982],[-74.9604837,38.9820875],[-74.9604793,38.9821449],[-74.9604727,38.9821614],[-74.9604756,38.9821725],[-74.9604865,38.982182],[-74.9607016,38.9822119],[-74.9607074,38.9822234],[-74.9607075,38.9822395],[-74.9606995,38.9822671],[-74.9604131,38.9829081],[-74.9603893,38.9829699],[-74.9603305,38.9832519],[-74.9603157,38.983328],[-74.9602907,38.9833955],[-74.960141,38.9839061],[-74.96002,38.9842894],[-74.9599504,38.9846032],[-74.9599447,38.9846632],[-74.959947,38.9847258],[-74.9599531,38.9847809],[-74.9599626,38.9848292],[-74.9599844,38.9848882],[-74.960008,38.9849328],[-74.960037,38.984973],[-74.9600607,38.984992],[-74.9600858,38.9850004],[-74.9601185,38.9850085],[-74.9601671,38.9850146],[-74.9602142,38.9850971],[-74.9602842,38.985151],[-74.9600077,38.9857001],[-74.9599731,38.9858248],[-74.9599503,38.9858709],[-74.9598124,38.9860426],[-74.9597959,38.9860624],[-74.9597847,38.9860877],[-74.95978,38.9861131],[-74.9597817,38.9861365],[-74.9597827,38.9861698],[-74.9597788,38.9861892],[-74.9597138,38.9863179],[-74.959464,38.9868773],[-74.9594138,38.9870077],[-74.9594016,38.98704],[-74.9593845,38.9870721],[-74.959324,38.9871765],[-74.9593137,38.9872079],[-74.9593057,38.9872381],[-74.9592979,38.9873037],[-74.9592957,38.9873395],[-74.9592968,38.9873859],[-74.9593025,38.9874384],[-74.9593172,38.9875223],[-74.9593265,38.987625],[-74.9593366,38.9876917],[-74.9593521,38.9877551],[-74.9593808,38.9878131],[-74.9593871,38.9878281],[-74.9593896,38.9878407],[-74.9593943,38.9878727],[-74.9593968,38.9878889],[-74.9594041,38.9879058],[-74.95941,38.9879114],[-74.9594195,38.9879147],[-74.9595251,38.9879294],[-74.9597278,38.987952],[-74.9597351,38.9879674],[-74.9597288,38.9879996],[-74.959696,38.9880267],[-74.9596567,38.9880641],[-74.9596389,38.9881001],[-74.9596326,38.9881425],[-74.9596263,38.9881888],[-74.959615,38.9882351],[-74.9596004,38.9882622],[-74.9595425,38.9883395],[-74.9594921,38.9884425],[-74.9594383,38.9886444],[-74.9594204,38.9886817],[-74.9594007,38.988692],[-74.959368,38.9887179],[-74.9593386,38.9887617],[-74.959324,38.9887977],[-74.959321,38.988844],[-74.9593066,38.988907],[-74.9592839,38.9889597],[-74.9592562,38.9889958],[-74.9592186,38.9890396],[-74.9591493,38.9891478],[-74.9591316,38.9892121],[-74.9591156,38.989279],[-74.9590882,38.9893652],[-74.9590524,38.9894347],[-74.9589563,38.9897267],[-74.9587173,38.9903084],[-74.9586923,38.9903907],[-74.9586878,38.9904639],[-74.9586865,38.9905102],[-74.9586605,38.9905617],[-74.9586081,38.990734],[-74.9585758,38.9908331],[-74.9585667,38.9909487],[-74.9585705,38.9910335],[-74.9585823,38.9910707],[-74.9585956,38.9911028],[-74.9586172,38.9911271],[-74.9586585,38.9911424],[-74.9587316,38.9911609],[-74.9588687,38.9911955],[-74.9588634,38.9912035],[-74.9588561,38.9912109],[-74.9587353,38.9913334],[-74.9586933,38.9913878],[-74.9586323,38.9914922],[-74.9580672,38.9930101],[-74.9579794,38.9933124],[-74.9579559,38.9935078],[-74.95795,38.993608],[-74.957952,38.9936684],[-74.9579581,38.9936908],[-74.9579706,38.9937128],[-74.9579963,38.9937342],[-74.9580628,38.9937486],[-74.9581129,38.9937595],[-74.9579973,38.9938423],[-74.9579377,38.9939022],[-74.9579101,38.9939332],[-74.9578727,38.9939988],[-74.9577785,38.9941971],[-74.9576878,38.9944309],[-74.9576797,38.9944482],[-74.9576658,38.9944635],[-74.9576458,38.9944838],[-74.9576363,38.9945091],[-74.9576342,38.9945299],[-74.957636,38.9945446],[-74.9576407,38.9945575],[-74.9576553,38.9945747],[-74.9576569,38.9945833],[-74.9576539,38.9946],[-74.9575639,38.9949212],[-74.9575588,38.9949364],[-74.9574621,38.9951733],[-74.9573907,38.9955338],[-74.9573782,38.9955696],[-74.9573612,38.9956093],[-74.9571387,38.9961639],[-74.9571287,38.996197],[-74.9571222,38.9962301],[-74.9571007,38.9963929],[-74.9570896,38.9964771],[-74.957081,38.9965415],[-74.9570663,38.9966083],[-74.9569995,38.9967774],[-74.9569879,38.9968087],[-74.9569814,38.9968454],[-74.9569818,38.9969238],[-74.9569731,38.9970196],[-74.956967,38.9970533],[-74.9568943,38.9972641],[-74.9567641,38.9975869],[-74.956553,38.9980976],[-74.9565109,38.9982043],[-74.9562051,38.9990158],[-74.9559671,38.9996424],[-74.9559047,38.9997968],[-74.9557938,39.0000114],[-74.9557047,39.0002564],[-74.9556872,39.0003512],[-74.9556726,39.0004187],[-74.9556417,39.0004846],[-74.9554843,39.0008648],[-74.9553913,39.0011911],[-74.9553456,39.0014162],[-74.9551761,39.0017351],[-74.9551438,39.0019005],[-74.9550897,39.0020216],[-74.9549147,39.0024217],[-74.9548275,39.0026568],[-74.9547345,39.0029075],[-74.9547308,39.0030988],[-74.9547232,39.003131],[-74.9546823,39.003177],[-74.9546064,39.0032645],[-74.9545698,39.0033749],[-74.9545177,39.0036673],[-74.9544536,39.003764],[-74.9544109,39.0038208],[-74.9543956,39.0038882],[-74.9543899,39.0039203],[-74.9543844,39.0039754],[-74.9542887,39.0041931],[-74.9542481,39.0042927],[-74.9542369,39.0043678],[-74.9542294,39.0044305],[-74.9542179,39.0044765],[-74.9542005,39.0045102],[-74.9541002,39.0047769],[-74.9539417,39.0051294],[-74.9535935,39.0061897],[-74.9532011,39.0070941],[-74.9528129,39.0080321],[-74.9523853,39.0089519],[-74.9520165,39.0098654],[-74.9516204,39.0108034],[-74.9511197,39.0119653],[-74.9506488,39.0128546],[-74.9500969,39.0139738],[-74.9495131,39.0150258],[-74.9489842,39.0160715],[-74.9485255,39.0170373],[-74.9480358,39.0180767],[-74.9475622,39.0191925],[-74.9470989,39.0200634],[-74.9466599,39.0210628],[-74.946524,39.0212868],[-74.946041,39.0221578],[-74.94577,39.0227075],[-74.9452873,39.0234932],[-74.9451558,39.0237147],[-74.945026,39.0238831],[-74.9449185,39.0240585],[-74.9447968,39.0242119],[-74.944668,39.0243542],[-74.9445379,39.0246286],[-74.9443806,39.0248585],[-74.9443805,39.0248586],[-74.9443804,39.0248588],[-74.944237,39.0251001],[-74.9441077,39.0253359],[-74.9439494,39.0256046],[-74.9438194,39.025868],[-74.9437324,39.0260419],[-74.9437041,39.0260984],[-74.9435452,39.0264222],[-74.9434004,39.026746],[-74.94336,39.0270641],[-74.9433466,39.0271695],[-74.9433072,39.0273671],[-74.9432993,39.0274068],[-74.9432082,39.0274785],[-74.9430491,39.0276307],[-74.9430175,39.0276612],[-74.943019,39.0276629],[-74.9429998,39.0277272],[-74.9429767,39.0278008],[-74.9429452,39.0278757],[-74.9429297,39.0278934],[-74.9428143,39.0279391],[-74.9427382,39.0279692],[-74.9426166,39.0281556],[-74.9424717,39.0284794],[-74.9423078,39.0286601],[-74.9422073,39.028841],[-74.9420843,39.0290935],[-74.9419408,39.0293292],[-74.9417819,39.0296585],[-74.941623,39.0299767],[-74.9414925,39.03024],[-74.9414789,39.0302676],[-74.9410788,39.0308607],[-74.9404493,39.0319707],[-74.9392328,39.0339332],[-74.938097,39.035592],[-74.9375016,39.0364324],[-74.936863,39.0373176],[-74.936453,39.0379373],[-74.9363566,39.0380787],[-74.9362397,39.038296],[-74.9361971,39.0384128],[-74.936051,39.0386154],[-74.9359914,39.038698],[-74.935967,39.0387401],[-74.9357464,39.0391203],[-74.9357303,39.0392011],[-74.9357093,39.0393072],[-74.9356989,39.0393507],[-74.9356937,39.0393725],[-74.9352365,39.0391255],[-74.935215,39.0391145],[-74.9351925,39.0391049],[-74.935169,39.0390967],[-74.9351448,39.03909],[-74.93512,39.0390849],[-74.9350947,39.0390813],[-74.9350691,39.0390792],[-74.9350434,39.0390788],[-74.9350178,39.03908],[-74.9349923,39.0390828],[-74.9349672,39.0390871],[-74.9349426,39.039093],[-74.9349188,39.0391004],[-74.9348957,39.0391093],[-74.9348737,39.0391196],[-74.9348528,39.0391312],[-74.9348331,39.0391441],[-74.9348149,39.0391581],[-74.9345099,39.0393982],[-74.9344932,39.03941],[-74.9344751,39.0394206],[-74.934456,39.0394298],[-74.9344358,39.0394377],[-74.9344148,39.0394441],[-74.9343932,39.039449],[-74.934371,39.0394524],[-74.9343486,39.0394542],[-74.934326,39.0394545],[-74.9343035,39.0394531],[-74.9342813,39.0394502],[-74.9342594,39.0394457],[-74.9340972,39.0393848],[-74.9340801,39.0393779],[-74.9340639,39.0393696],[-74.934049,39.0393601],[-74.9340353,39.0393495],[-74.9340231,39.0393379],[-74.9340124,39.0393254],[-74.9340034,39.0393121],[-74.9339962,39.0392982],[-74.9339909,39.0392838],[-74.9339874,39.039269],[-74.9339859,39.039254],[-74.9339863,39.039239],[-74.9339887,39.0392241],[-74.933993,39.0392095],[-74.9339992,39.0391953],[-74.934199,39.0386762],[-74.9342018,39.0386625],[-74.9342028,39.0386487],[-74.934202,39.0386348],[-74.9341995,39.0386211],[-74.9341952,39.0386076],[-74.9341892,39.0385946],[-74.9341815,39.0385821],[-74.9341723,39.0385702],[-74.9341616,39.0385591],[-74.9341461,39.0385457],[-74.9341291,39.0385335],[-74.9341108,39.0385226],[-74.9340913,39.0385129],[-74.9340707,39.0385047],[-74.9340493,39.0384979],[-74.9340272,39.0384927],[-74.9340046,39.038489],[-74.9339816,39.0384869],[-74.9339585,39.0384864],[-74.9339354,39.0384875],[-74.9339125,39.0384902],[-74.9338476,39.0384992],[-74.9337823,39.0385066],[-74.9337167,39.0385124],[-74.933651,39.0385165],[-74.9335851,39.0385191],[-74.9335192,39.03852],[-74.9334532,39.0385193],[-74.9333873,39.038517],[-74.9333215,39.0385131],[-74.9332559,39.0385075],[-74.9331906,39.0385004],[-74.9331256,39.0384917],[-74.933061,39.0384813],[-74.9329969,39.0384694],[-74.9329332,39.0384559],[-74.9328702,39.0384409],[-74.9328077,39.0384243],[-74.932746,39.0384062],[-74.9326851,39.0383865],[-74.9325405,39.0383335],[-74.9323891,39.0382805],[-74.9322605,39.0382327],[-74.9320482,39.0381424],[-74.9319127,39.0380858],[-74.9318186,39.0380486],[-74.9316878,39.0380009],[-74.9316075,39.0379762],[-74.9315226,39.0379515],[-74.9314813,39.0379428],[-74.9314012,39.0379341],[-74.9312936,39.0379417],[-74.9311838,39.0379581],[-74.9310819,39.0379621],[-74.9309697,39.0379607],[-74.9308803,39.0379521],[-74.9308086,39.0379394],[-74.9307519,39.0379294],[-74.9306327,39.037903],[-74.9304412,39.0378484],[-74.9303171,39.0377827],[-74.9302392,39.037767],[-74.9301589,39.0377566],[-74.9300512,39.0377409],[-74.9299206,39.0377235],[-74.9298174,39.037706],[-74.9297349,39.0376938],[-74.9296799,39.037678],[-74.9296202,39.0376567],[-74.92961,39.0376517],[-74.9295628,39.0376284],[-74.9295329,39.0376017],[-74.9295051,39.0375607],[-74.9294911,39.037509],[-74.9294941,39.0374393],[-74.9295075,39.0373803],[-74.9295163,39.037316],[-74.9295205,39.0372607],[-74.9295108,39.0371714],[-74.9294966,39.0370875],[-74.9294848,39.0370376],[-74.9294662,39.0369912],[-74.9294293,39.0369413],[-74.9293878,39.036895],[-74.929305,39.03684],[-74.9292469,39.0368198],[-74.9292339,39.0368152],[-74.9291697,39.036803],[-74.9291568,39.036802],[-74.9290826,39.0367961],[-74.929046,39.0368016],[-74.9290095,39.0368196],[-74.9289365,39.0368628],[-74.9288727,39.0369237],[-74.9287931,39.0370044],[-74.928735,39.0370653],[-74.9286963,39.0371012],[-74.9286736,39.0371263],[-74.9286416,39.0371424],[-74.9285982,39.0371497],[-74.9285294,39.0371482],[-74.9284675,39.0371306],[-74.9283069,39.037083],[-74.9282293,39.0370645],[-74.9281077,39.0372247],[-74.9280306,39.0373321],[-74.9279607,39.0374325],[-74.9279087,39.0375017],[-74.9278692,39.0375442],[-74.9278314,39.0375768],[-74.9278008,39.0375952],[-74.9277323,39.0376307],[-74.9276746,39.0376535],[-74.9276133,39.0376833],[-74.9275609,39.037699],[-74.9275014,39.0377091],[-74.9274237,39.0377178],[-74.9273596,39.0377293],[-74.9273,39.0377507],[-74.9272766,39.0377607],[-74.9272568,39.0377734],[-74.927246,39.0377862],[-74.9272425,39.0378031],[-74.927248,39.037827],[-74.9272826,39.0378664],[-74.9273336,39.0379141],[-74.9273754,39.0379605],[-74.9274009,39.0379971],[-74.9274212,39.0380534],[-74.9274287,39.0381056],[-74.9274274,39.0381831],[-74.9274204,39.0382297],[-74.9274008,39.0382678],[-74.927345,39.0383202],[-74.9272892,39.0383613],[-74.9272405,39.0383826],[-74.9272072,39.0383968],[-74.9271657,39.0384068],[-74.9271079,39.0384141],[-74.9270645,39.0384199],[-74.9270157,39.0384173],[-74.926965,39.0384062],[-74.9268944,39.0383881],[-74.9268383,39.0383784],[-74.9267803,39.0383645],[-74.9267496,39.0383604],[-74.9267007,39.0383564],[-74.9266465,39.0383608],[-74.9266213,39.0383708],[-74.9265457,39.038426],[-74.9265087,39.0384473],[-74.9264637,39.0384672],[-74.9264131,39.0384871],[-74.9263825,39.0384999],[-74.9263609,39.0385184],[-74.9263429,39.0385311],[-74.9263069,39.038558],[-74.9262691,39.0385807],[-74.9262205,39.0386119],[-74.9261969,39.0386174],[-74.9261629,39.0386137],[-74.9261338,39.0386063],[-74.9261014,39.0385875],[-74.9260673,39.0385587],[-74.9260381,39.0385298],[-74.9259763,39.0384645],[-74.9258983,39.0383855],[-74.9258139,39.0383102],[-74.9257488,39.0382399],[-74.9257098,39.0381947],[-74.9256854,39.0381621],[-74.9256692,39.038147],[-74.9256241,39.0381144],[-74.9255799,39.0380812],[-74.9255366,39.0380475],[-74.9254942,39.0380132],[-74.9254526,39.0379783],[-74.9254119,39.0379428],[-74.925372,39.0379067],[-74.925333,39.0378701],[-74.9252916,39.0378321],[-74.9252767,39.0378179],[-74.9252618,39.037802],[-74.9252499,39.037787],[-74.9252401,39.0377727],[-74.9252313,39.0377587],[-74.9252236,39.0377451],[-74.925217,39.0377318],[-74.9252114,39.0377188],[-74.9252069,39.0377062],[-74.9252035,39.037694],[-74.9252012,39.0376821],[-74.9251999,39.0376702],[-74.9251995,39.0376577],[-74.9252001,39.0376447],[-74.9252015,39.0376311],[-74.9252039,39.037617],[-74.9252073,39.0376024],[-74.9252115,39.0375874],[-74.9252166,39.0375721],[-74.9252211,39.0375604],[-74.9252264,39.0375485],[-74.9252324,39.0375365],[-74.925239,39.0375246],[-74.9252462,39.0375127],[-74.9252539,39.037501],[-74.9252622,39.0374895],[-74.9252708,39.0374783],[-74.9252799,39.0374676],[-74.9252892,39.0374574],[-74.9252989,39.0374476],[-74.9253088,39.0374385],[-74.9253188,39.0374299],[-74.925329,39.037422],[-74.9253392,39.0374147],[-74.9253496,39.0374082],[-74.9253582,39.0374035],[-74.9253674,39.0373992],[-74.9253773,39.0373955],[-74.9253879,39.0373923],[-74.9253991,39.0373895],[-74.925411,39.0373873],[-74.9254238,39.0373855],[-74.9254374,39.0373841],[-74.9254624,39.0373828],[-74.9254913,39.0373826],[-74.9255207,39.0373834],[-74.9255998,39.0373866],[-74.9256231,39.037387],[-74.9256437,39.0373869],[-74.9256664,39.0373859],[-74.925687,39.0373841],[-74.925706,39.0373813],[-74.9257235,39.0373776],[-74.9257462,39.0373712],[-74.9257694,39.0373634],[-74.9257932,39.037354],[-74.925818,39.0373429],[-74.9258416,39.0373313],[-74.9258673,39.0373176],[-74.9259641,39.0372627],[-74.9259858,39.0372508],[-74.9260055,39.0372405],[-74.9260284,39.0372294],[-74.9260501,39.0372196],[-74.9260711,39.0372111],[-74.9260916,39.0372038],[-74.9261188,39.0371951],[-74.9261471,39.0371867],[-74.9261766,39.0371784],[-74.9262074,39.0371704],[-74.9262395,39.0371626],[-74.9262731,39.0371548],[-74.9263466,39.0371394],[-74.926366,39.0371359],[-74.926386,39.0371329],[-74.9264066,39.0371305],[-74.926428,39.0371286],[-74.9264501,39.0371273],[-74.926473,39.0371264],[-74.9264969,39.0371261],[-74.9265219,39.0371263],[-74.9265659,39.0371278],[-74.9266152,39.0371308],[-74.9266635,39.0371346],[-74.9267832,39.0371449],[-74.9268465,39.0371493],[-74.9268791,39.0371508],[-74.9269093,39.0371516],[-74.9269378,39.0371516],[-74.9269648,39.0371509],[-74.9269951,39.0371491],[-74.9270239,39.0371463],[-74.9270514,39.0371424],[-74.9270775,39.0371374],[-74.9271025,39.0371313],[-74.9271264,39.0371241],[-74.9271493,39.0371157],[-74.9271712,39.0371061],[-74.9271865,39.0370995],[-74.9272294,39.0370824],[-74.9272411,39.0370772],[-74.9272508,39.0370722],[-74.9272608,39.0370659],[-74.9272687,39.0370596],[-74.9272745,39.0370531],[-74.9272784,39.0370463],[-74.9272799,39.0370416],[-74.9272808,39.0370365],[-74.9272811,39.0370308],[-74.9272808,39.0370245],[-74.927279,39.0370129],[-74.9272719,39.0369802],[-74.9272675,39.0369538],[-74.9272619,39.0369276],[-74.9272552,39.0369015],[-74.9272475,39.0368757],[-74.9272386,39.03685],[-74.9272287,39.0368246],[-74.9272177,39.0367993],[-74.9272056,39.0367743],[-74.9271924,39.0367494],[-74.9271781,39.0367247],[-74.9271628,39.0367003],[-74.9271463,39.036676],[-74.9271288,39.0366519],[-74.9271102,39.036628],[-74.9270905,39.0366043],[-74.9270697,39.0365808],[-74.9270064,39.0365198],[-74.9269522,39.0364736],[-74.9268464,39.03639],[-74.926706,39.0362727],[-74.9265796,39.0361821],[-74.9264692,39.0361057],[-74.9264049,39.036072],[-74.9263453,39.0360597],[-74.9262674,39.0360511],[-74.9261986,39.0360513],[-74.9260544,39.036059],[-74.9259393,39.0360718],[-74.9259228,39.0360783],[-74.9259071,39.0360855],[-74.9258922,39.0360933],[-74.9258781,39.0361017],[-74.9258637,39.0361117],[-74.9258499,39.0361231],[-74.9258367,39.0361359],[-74.9258239,39.0361502],[-74.9258118,39.0361659],[-74.9258001,39.0361831],[-74.925789,39.0362018],[-74.9257782,39.0362221],[-74.9257691,39.0362428],[-74.9257612,39.0362652],[-74.9257547,39.0362894],[-74.9257495,39.0363155],[-74.9257467,39.0363383],[-74.9257456,39.0363633],[-74.925746,39.036391],[-74.9257481,39.0364256],[-74.9257492,39.0364361],[-74.925751,39.036447],[-74.9257566,39.0364708],[-74.9257637,39.0364935],[-74.9257823,39.0365474],[-74.92579,39.0365746],[-74.9257928,39.036588],[-74.9257946,39.0366006],[-74.9257955,39.0366125],[-74.9257955,39.0366241],[-74.9257935,39.0366476],[-74.9257897,39.0366717],[-74.925784,39.0366964],[-74.9257765,39.0367214],[-74.9257672,39.0367467],[-74.9257561,39.036772],[-74.9257435,39.0367971],[-74.9257294,39.0368218],[-74.9257082,39.0368603],[-74.925703,39.036869],[-74.9256979,39.0368763],[-74.9256918,39.0368837],[-74.9256856,39.0368899],[-74.9256792,39.0368947],[-74.9256724,39.0368985],[-74.9256674,39.0369004],[-74.9256619,39.0369021],[-74.9256495,39.0369045],[-74.9256352,39.0369056],[-74.9256192,39.0369054],[-74.9256015,39.0369039],[-74.9255828,39.0369011],[-74.9255638,39.0368971],[-74.9255457,39.0368921],[-74.9255353,39.0368884],[-74.9255249,39.0368837],[-74.9255143,39.0368778],[-74.9255033,39.0368707],[-74.9254936,39.0368637],[-74.925483,39.0368554],[-74.9254406,39.0368199],[-74.925427,39.0368084],[-74.925414,39.0367963],[-74.9254016,39.0367833],[-74.9253899,39.0367696],[-74.9253789,39.0367551],[-74.9253683,39.0367398],[-74.9253583,39.0367236],[-74.9253488,39.0367063],[-74.9253403,39.0366893],[-74.9253321,39.0366711],[-74.9253241,39.0366517],[-74.9253162,39.0366308],[-74.9253017,39.0365879],[-74.9252756,39.0365026],[-74.9252642,39.0364674],[-74.9252512,39.0364312],[-74.925238,39.0363994],[-74.9252294,39.0363813],[-74.9252205,39.0363641],[-74.9252112,39.0363479],[-74.9252014,39.0363326],[-74.9251912,39.0363181],[-74.9251804,39.0363042],[-74.925169,39.0362911],[-74.9251571,39.0362787],[-74.925138,39.0362604],[-74.9251186,39.0362424],[-74.9250988,39.0362248],[-74.9250787,39.0362078],[-74.9250584,39.0361913],[-74.9250379,39.0361755],[-74.9250172,39.0361602],[-74.9249964,39.0361456],[-74.9249672,39.0361262],[-74.9249373,39.0361076],[-74.9249067,39.0360897],[-74.9248754,39.0360725],[-74.9248434,39.0360561],[-74.9248107,39.0360404],[-74.9247774,39.0360255],[-74.9247434,39.0360114],[-74.9246687,39.0359944],[-74.9243867,39.0359347],[-74.9241505,39.0358713],[-74.924081,39.0358285],[-74.9239801,39.0357311],[-74.9238789,39.0355789],[-74.9238131,39.0354814],[-74.9237593,39.0354174],[-74.9236436,39.0353024],[-74.9235371,39.0352173],[-74.9234103,39.0350995],[-74.9233203,39.0350172],[-74.9232743,39.0349617],[-74.9232172,39.034875],[-74.9231692,39.0347997],[-74.9231094,39.034723],[-74.9230598,39.0346776],[-74.9229773,39.034618],[-74.9228801,39.03456],[-74.9226839,39.034451],[-74.9224767,39.0343235],[-74.9223814,39.0342583],[-74.9222309,39.0341391],[-74.9220547,39.0340058],[-74.9219079,39.0339038],[-74.921765,39.0338359],[-74.9216946,39.0338146],[-74.92163,39.0338847],[-74.9216038,39.033903],[-74.9215976,39.0339058],[-74.8887922,39.0145827],[-74.9294358,38.9805378],[-74.9223653,38.9669245],[-74.9333031,38.9481589],[-74.933579,38.9483259],[-74.9335799,38.9483263],[-74.9336079,38.9483406],[-74.9336363,38.9483545],[-74.9336649,38.948368],[-74.9336939,38.9483811],[-74.9337232,38.9483938],[-74.9337527,38.9484062],[-74.9337826,38.9484181],[-74.9338126,38.9484296],[-74.9338429,38.9484407],[-74.9338734,38.9484514],[-74.9339043,38.9484616],[-74.9339353,38.9484715],[-74.9339665,38.9484809],[-74.9339979,38.9484899],[-74.9340312,38.9484989],[-74.9347897,38.9487306],[-74.9349571,38.9487818],[-74.9376767,38.9496126],[-74.9380127,38.9489295]]]]}}
